NORAD_CAT_ID,OBJECT_NAME,OBJECT_TYPE,EPOCH,MEAN_MOTION,ECCENTRICITY,INCLINATION,RA_OF_ASC_NODE,ARG_OF_PERICENTER,MEAN_ANOMALY,BSTAR,MEAN_MOTION_DOT,MEAN_MOTION_DDOT,TLE_LINE0,TLE_LINE1,TLE_LINE2,SEMIMAJOR_AXIS,PERIOD,APOGEE,PERIGEE,DECAYED
49757.0,STARLINK-3197,PAYLOAD,2023-01-16 22:30:44,15.08837588,0.000158,53.2146,251.5721,65.2696,294.846,0.00033027,4.972e-05,0.0,0 STARLINK-3197,1 49757U 21115AK  23016.93801777  .00004972  00000-0  33027-3 0  9996,2 49757  53.2146 251.5721 0001580  65.2696 294.8460 15.08837588 63517,6917.888000000001,95.438,540.846,538.66,0.0
49757.0,STARLINK-3197,PAYLOAD,2023-01-17 08:03:03,15.08836144,0.0001725,53.2156,249.7866,62.3293,297.7874,0.00014969,2.095e-05,0.0,0 STARLINK-3197,1 49757U 21115AK  23017.33545731  .00002095  00000-0  14969-3 0  9994,2 49757  53.2156 249.7866 0001725  62.3293 297.7874 15.08836144 62460,6917.892,95.438,540.951,538.564,0.0
49757.0,STARLINK-3197,PAYLOAD,2023-01-17 15:59:58,15.08844322,0.0001761,53.2156,248.3,70.2893,289.8289,-0.0002440999999999,-4.171e-05,0.0,0 STARLINK-3197,1 49757U 21115AK  23017.66665125 -.00004171  00000-0 -24410-3 0  9991,2 49757  53.2156 248.3000 0001761  70.2893 289.8289 15.08844322 62514,6917.866999999999,95.437,540.95,538.514,0.0
49757.0,STARLINK-3197,PAYLOAD,2023-01-17 23:56:54,15.08845189,0.0001978,53.2159,246.8131,66.9488,293.1712,-0.00016493,-2.913e-05,0.0,0 STARLINK-3197,1 49757U 21115AK  23017.99785007 -.00002913  00000-0 -16493-3 0  9993,2 49757  53.2159 246.8131 0001978  66.9488 293.1712 15.08845189 63676,6917.865,95.437,541.0980000000001,538.361,0.0
49757.0,STARLINK-3197,PAYLOAD,2023-01-18 14:15:22,15.08837475,0.0001621999999999,53.2142,244.1382,76.6135,283.5038,3.9457e-05,3.4e-06,0.0,0 STARLINK-3197,1 49757U 21115AK  23018.59401507  .00000340  00000-0  39457-4 0  9996,2 49757  53.2142 244.1382 0001622  76.6135 283.5038 15.08837475 62650,6917.888000000001,95.438,540.875,538.631,0.0
49757.0,STARLINK-3197,PAYLOAD,2023-01-18 20:36:54,15.08846363,0.0001394,53.2141,242.9484,96.001,264.1141,0.00015459,2.174e-05,0.0,0 STARLINK-3197,1 49757U 21115AK  23018.85896873  .00002174  00000-0  15459-3 0  9991,2 49757  53.2141 242.9484 0001394  96.0010 264.1141 15.08846363 62692,6917.861,95.437,540.69,538.762,0.0
49757.0,STARLINK-3197,PAYLOAD,2023-01-19 07:44:37,15.0884201,0.0001437,53.2145,240.8678,84.0534,276.0622,1.2652e-05,-8.7e-07,0.0,0 STARLINK-3197,1 49757U 21115AK  23019.32265105 -.00000087  00000-0  12652-4 0  9997,2 49757  53.2145 240.8678 0001437  84.0534 276.0622 15.08842010 63876,6917.874,95.437,540.7330000000001,538.745,0.0
49757.0,STARLINK-3197,PAYLOAD,2023-01-19 14:06:10,15.08835098,0.0001610999999999,53.2151,239.6783,84.3523,275.7653,7.2222e-05,8.61e-06,0.0,0 STARLINK-3197,1 49757U 21115AK  23019.58761638  .00000861  00000-0  72222-4 0  9995,2 49757  53.2151 239.6783 0001611  84.3523 275.7653 15.08835098 62801,6917.895,95.438,540.875,538.646,0.0
49757.0,STARLINK-3197,PAYLOAD,2023-01-19 17:16:56,15.08833042,0.0001665,53.215,239.0817,83.1643,276.9538,3.8007e-05,3.17e-06,0.0,0 STARLINK-3197,1 49757U 21115AK  23019.72009796  .00000317  00000-0  38007-4 0  9990,2 49757  53.2150 239.0817 0001665  83.1643 276.9538 15.08833042 63938,6917.901999999999,95.438,540.918,538.615,0.0
49757.0,STARLINK-3197,PAYLOAD,2023-01-20 10:46:10,15.08840066,0.0001534,53.215,235.8109,82.8943,277.2224,0.00010444,1.375e-05,0.0,0 STARLINK-3197,1 49757U 21115AK  23020.44873682  .00001375  00000-0  10444-3 0  9993,2 49757  53.2150 235.8109 0001534  82.8943 277.2224 15.08840066 62939,6917.88,95.438,540.806,538.684,0.0
49757.0,STARLINK-3197,PAYLOAD,2023-01-20 21:53:52,15.08850278,0.000128,53.2153,233.7296,92.1116,268.0023,3.8411e-05,3.24e-06,0.0,0 STARLINK-3197,1 49757U 21115AK  23020.91241045  .00000324  00000-0  38411-4 0  9995,2 49757  53.2153 233.7296 0001280  92.1116 268.0023 15.08850278 64113,6917.849,95.437,540.599,538.828,0.0
49757.0,STARLINK-3197,PAYLOAD,2023-01-21 09:01:34,15.08840645,0.0001483,53.2153,231.6483,83.4168,276.6992,9.1943e-05,1.176e-05,0.0,0 STARLINK-3197,1 49757U 21115AK  23021.37609680  .00001176  00000-0  91943-4 0  9994,2 49757  53.2153 231.6483 0001483  83.4168 276.6992 15.08840645 64187,6917.878000000001,95.438,540.769,538.717,0.0
49757.0,STARLINK-3197,PAYLOAD,2023-01-21 15:23:07,15.08835153,0.0001443999999999,53.2152,230.459,86.4349,273.6808,0.00013262,1.823e-05,0.0,0 STARLINK-3197,1 49757U 21115AK  23021.64106056  .00001823  00000-0  13262-3 0  9999,2 49757  53.2152 230.4590 0001444  86.4349 273.6808 15.08835153 64229,6917.895,95.438,540.759,538.761,0.0
49757.0,STARLINK-3197,PAYLOAD,2023-01-22 20:00:03,15.08835687,0.0001425,53.2169,225.1065,85.3572,274.7582,0.00018818,2.708e-05,0.0,0 STARLINK-3197,1 49757U 21115AK  23022.83337849  .00002708  00000-0  18818-3 0  9992,2 49757  53.2169 225.1065 0001425  85.3572 274.7582 15.08835687 64403,6917.894,95.438,540.744,538.773,0.0
49757.0,STARLINK-3197,PAYLOAD,2023-01-24 19:41:37,15.08841309,0.0001511,53.2169,216.1847,83.1199,276.9965,5.0053e-05,5.09e-06,0.0,0 STARLINK-3197,1 49757U 21115AK  23024.82057561  .00000509  00000-0  50053-4 0  9998,2 49757  53.2169 216.1847 0001511  83.1199 276.9965 15.08841309 64708,6917.876,95.437,540.7869999999999,538.696,0.0
49757.0,STARLINK-3197,PAYLOAD,2023-01-25 05:13:56,15.08841175,0.0001484,53.2169,214.4006,80.4273,279.6886,2.2115e-05,6.4e-07,0.0,0 STARLINK-3197,1 49757U 21115AK  23025.21801570  .00000064  00000-0  22115-4 0  9993,2 49757  53.2169 214.4006 0001484  80.4273 279.6886 15.08841175 63654,6917.877,95.437,540.768,538.715,0.0
49757.0,STARLINK-3197,PAYLOAD,2023-01-25 19:32:24,15.08841054,0.0001458,53.2169,211.7246,85.1409,274.9749,2.8300000000000003e-05,1.62e-06,0.0,0 STARLINK-3197,1 49757U 21115AK  23025.81417559  .00000162  00000-0  28300-4 0  9990,2 49757  53.2169 211.7246 0001458  85.1409 274.9749 15.08841054 63746,6917.877,95.437,540.751,538.734,0.0
49757.0,STARLINK-3197,PAYLOAD,2023-01-26 19:23:11,15.08841089,0.0001443,53.2169,207.2643,85.897,274.2187,5.6378e-05,6.09e-06,0.0,0 STARLINK-3197,1 49757U 21115AK  23026.80777465  .00000609  00000-0  56378-4 0  9997,2 49757  53.2169 207.2643 0001443  85.8970 274.2187 15.08841089 65009,6917.877,95.437,540.74,538.744,0.0
49757.0,STARLINK-3197,PAYLOAD,2023-01-27 11:17:03,15.08835481,0.0001465999999999,53.217,204.291,87.0275,273.0885,3.9081e-05,3.34e-06,0.0,0 STARLINK-3197,1 49757U 21115AK  23027.47017874  .00000334  00000-0  39081-4 0  9999,2 49757  53.2170 204.2910 0001466  87.0275 273.0885 15.08835481 63999,6917.894,95.438,540.773,538.745,0.0
49757.0,STARLINK-3197,PAYLOAD,2023-01-27 19:13:59,15.08833183,0.0001398,53.2172,202.8038,87.2193,272.8959,-2.1349e-05,-6.28e-06,0.0,0 STARLINK-3197,1 49757U 21115AK  23027.80138289 -.00000628  00000-0 -21349-4 0  9996,2 49757  53.2172 202.8038 0001398  87.2193 272.8959 15.08833183 65157,6917.901,95.438,540.7330000000001,538.799,0.0
49757.0,STARLINK-3197,PAYLOAD,2023-01-28 04:46:20,15.08764113,0.0001594,53.2172,201.0202,74.1302,285.9866,0.0008807,0.00013727,0.0,0 STARLINK-3197,1 49757U 21115AK  23028.19884485  .00013727  00000-0  88070-3 0  9990,2 49757  53.2172 201.0202 0001594  74.1302 285.9866 15.08764113 65211,6918.111999999999,95.442,541.08,538.875,0.0
49757.0,STARLINK-3197,PAYLOAD,2023-01-28 11:07:51,15.08832417,0.0001284,53.2171,199.8309,87.0204,273.0935,-2.1249e-05,-6.26e-06,0.0,0 STARLINK-3197,1 49757U 21115AK  23028.46378564 -.00000626  00000-0 -21249-4 0  9998,2 49757  53.2171 199.8309 0001284  87.0204 273.0935 15.08832417 65254,6917.904,95.438,540.657,538.88,0.0
49757.0,STARLINK-3197,PAYLOAD,2023-01-28 20:40:09,15.08835633,0.000128,53.2171,198.0468,86.5939,273.52,-1.3364e-06,-3.09e-06,0.0,0 STARLINK-3197,1 49757U 21115AK  23028.86122437 -.00000309  00000-0 -13364-5 0  9996,2 49757  53.2171 198.0468 0001280  86.5939 273.5200 15.08835633 64203,6917.894,95.438,540.644,538.873,0.0
49757.0,STARLINK-3197,PAYLOAD,2023-01-29 04:37:05,15.08839903,0.0001281,53.2173,196.56,86.5538,273.5601,3.399e-05,2.53e-06,0.0,0 STARLINK-3197,1 49757U 21115AK  23029.19242081  .00000253  00000-0  33990-4 0  9993,2 49757  53.2173 196.5600 0001281  86.5538 273.5601 15.08839903 65369,6917.881,95.438,540.632,538.86,0.0
49757.0,STARLINK-3197,PAYLOAD,2023-01-29 20:30:55,15.08844058,0.0001243,53.2174,193.5861,87.4646,272.6489,0.00014519,2.024e-05,0.0,0 STARLINK-3197,1 49757U 21115AK  23029.85481432  .00002024  00000-0  14519-3 0  9994,2 49757  53.2174 193.5861 0001243  87.4646 272.6489 15.08844058 64353,6917.868,95.437,540.593,538.873,0.0
49757.0,STARLINK-3197,PAYLOAD,2023-01-30 10:49:24,15.08838328,0.0001287,53.2175,190.9098,86.9127,273.2013,8.6061e-05,1.082e-05,0.0,0 STARLINK-3197,1 49757U 21115AK  23030.45098054  .00001082  00000-0  86061-4 0  9991,2 49757  53.2175 190.9098 0001287  86.9127 273.2013 15.08838328 64446,6917.885,95.438,540.641,538.86,0.0
49757.0,STARLINK-3197,PAYLOAD,2023-01-30 14:00:11,15.08837346,0.0001247,53.2171,190.3145,89.1895,270.924,7.4715e-05,9.01e-06,0.0,0 STARLINK-3197,1 49757U 21115AK  23030.58346132  .00000901  00000-0  74715-4 0  9990,2 49757  53.2171 190.3145 0001247  89.1895 270.9240 15.08837346 65572,6917.889,95.438,540.616,538.891,0.0
49757.0,STARLINK-3197,PAYLOAD,2023-01-30 20:21:43,15.0884208,0.0001216,53.2172,189.1248,89.3998,270.7133,6.8032e-05,7.95e-06,0.0,0 STARLINK-3197,1 49757U 21115AK  23030.84841828  .00000795  00000-0  68032-4 0  9997,2 49757  53.2172 189.1248 0001216  89.3998 270.7133 15.08842080 64507,6917.874,95.437,540.58,538.898,0.0
49757.0,STARLINK-3197,PAYLOAD,2023-01-31 18:37:07,15.08841846,0.0001294,53.2173,184.9606,97.2614,262.8526,-4.0272e-05,-9.29e-06,0.0,0 STARLINK-3197,1 49757U 21115AK  23031.77578069 -.00000929  00000-0 -40272-4 0  9991,2 49757  53.2173 184.9606 0001294  97.2614 262.8526 15.08841846 64640,6917.875,95.437,540.635,538.845,0.0
